INTERCOSMOS 24          
1 20261U 89080A   25148.33831802  .00000653  00000+0  19308-3 0  9991
2 20261  82.6047 289.9549 1189502 234.6757 113.7425 12.58995648630881
SL-14 R/B               
1 20262U 89080C   25148.53987522  .00000457  00000+0  12837-3 0  9997
2 20262  82.5946 356.2853 1231734 116.4680 256.7990 12.50292507624516
DELTA 1 R/B             
1 20323U 89089B   25148.44507909  .00000324  00000+0  89574-4 0  9997
2 20323  97.1066  35.7954 0068099 304.3404  55.1363 14.50384561854382
ARIANE 40 R/B           
1 20443U 90005H   25148.45778739  .00000285  00000+0  10486-3 0  9993
2 20443  98.3467 211.9436 0009717 350.1785   9.9212 14.39626885851763
DELTA 2 R/B(1)          
1 20453U 90008B   25148.58067355  .00026135  00000+0  60298-3 0  9994
2 20453  35.6089 205.5476 0142554 186.7709 173.1091 15.31597127882118
COSMOS 2058             
1 20465U 90010A   25148.55142331  .00002964  00000+0  18685-3 0  9992
2 20465  82.4767 327.5751 0009523 232.0596 127.9772 15.08755727899210
SL-14 R/B               
1 20466U 90010B   25148.35444050  .00000377  00000+0  42999-4 0  9996
2 20466  82.5021 175.2949 0020565 156.1458 204.0714 14.83245185886183
SL-14 R/B               
1 20511U 90018B   25148.57131596  .00000432  00000+0  51697-4 0  9994
2 20511  82.5198 129.5377 0015207 314.1748  45.8215 14.81830702880354
HST                     
1 20580U 90037B   25148.28502761  .00004442  00000+0  16415-3 0  9998
2 20580  28.4663 179.8004 0002420 220.6890 139.3524 15.25110610729647
SL-16 R/B               
1 20625U 90046B   25148.37983177 -.00000041  00000+0  34770-5 0  9990
2 20625  70.9984 177.0869 0013760   8.4783 351.6569 14.14967752808039
COSMOS 2084             
1 20663U 90055A   25147.66256466  .00002592  00000+0  19543-3 0  9998
2 20663  62.7903 229.4653 0064083 152.4817 207.9700 15.03577853893285
SL-6 R/B(2)             
1 20666U 90055D   25147.96135211  .00001450  00000+0  12446-3 0  9995
2 20666  62.7812 144.1474 0029636 186.9956 173.0733 15.01951220895252
SL-8 R/B                
1 20775U 90078B   25148.38918138  .00008629  00000+0  29074-3 0  9995
2 20775  82.9064 145.4742 0402034 245.2008 110.6892 14.77960531767014
SL-8 R/B                
1 21088U 91006B   25148.58933877  .00000133  00000+0  11809-3 0  9993
2 21088  82.9440  22.1364 0023732 112.2734 281.9014 13.77453470724822
OKEAN-3                 
1 21397U 91039A   25148.25704821  .00002507  00000+0  18566-3 0  9995
2 21397  82.5186 252.8764 0014093 216.7862 143.2397 15.02668016822148
COSMOS 2151             
1 21422U 91042A   25148.32277734  .00001519  00000+0  12384-3 0  9998
2 21422  82.4977 358.5737 0011353 308.8069  51.2140 14.98786968820431
SL-14 R/B               
1 21423U 91042B   25148.36321122  .00000417  00000+0  49965-4 0  9996
2 21423  82.4914 127.7021 0018739  98.0419 262.2922 14.81528845810821
ERS-1                   
1 21574U 91050A   25148.46616468  .00000292  00000+0  10868-3 0  9993
2 21574  98.7916 154.4921 0031466 330.2820  29.6578 14.39186376774705
ARIANE 40 R/B           
1 21610U 91050F   25148.43185650  .00000326  00000+0  11075-3 0  9994
2 21610  98.2402 205.7019 0002637 193.7868 166.3251 14.42622640777861
INTERCOSMOS 25          
1 21819U 91086A   25148.40926792  .00002612  00000+0  51125-3 0  9991
2 21819  82.6005 122.3828 1491536  11.5464 351.6165 12.10960229462146
SL-8 R/B                
1 21876U 92008B   25148.46656289  .00000122  00000+0  11017-3 0  9996
2 21876  82.9250 119.8987 0033875 209.3141 300.6467 13.75930046670198
SL-8 R/B                
1 21938U 92020B   25148.54371990  .00000139  00000+0  12804-3 0  9994
2 21938  82.9314   5.5362 0029506  16.4304  17.3822 13.75504023661931
USA 81                  
1 21949U 92023A   25148.34590902  .00000184  00000+0  61017-4 0  9994
2 21949  85.0056 296.0295 0001527 113.9848 246.1505 14.32238440 53948
COSMOS 2219             
1 22219U 92076A   25148.58072382 -.00000191  00000+0 -75693-4 0  9991
2 22219  71.0612 254.0441 0020670 275.5750  84.3015 14.14028185678074
SL-16 R/B               
1 22220U 92076B   25148.56012935  .00000269  00000+0  15826-3 0  9994
2 22220  71.0008  68.9673 0012689 179.5232 353.3831 14.16803616681445
COSMOS 2221             
1 22236U 92080A   25148.39487997  .00001558  00000+0  14045-3 0  9995
2 22236  82.5051 191.9700 0016280  73.3341 286.9666 14.94818389738155
SL-16 R/B               
1 22285U 92093B   25148.50898773  .00000326  00000+0  19153-3 0  9991
2 22285  71.0221 242.9071 0003928 352.9298   7.1769 14.15394977672802
COSMOS 2228             
1 22286U 92094A   25148.51898327  .00001772  00000+0  15665-3 0  9999
2 22286  82.5169 149.9883 0018639 176.5015 183.6341 14.95646533733417
SL-16 R/B               
1 22566U 93016B   25148.59189361  .00000285  00000+0  17087-3 0  9992
2 22566  71.0074  93.9470 0009137  26.7370 333.4222 14.15257484661833
COSMOS 2242             
1 22626U 93024A   25148.05360420  .00001459  00000+0  13046-3 0  9991
2 22626  82.5192 179.5415 0016824 180.0448 180.0775 14.95103512737696
SL-16 R/B               
1 22803U 93059B   25148.53441319  .00000256  00000+0  15043-3 0  9999
2 22803  70.9908 252.4323 0019303 283.0580  76.8389 14.17173530639138
ARIANE 40 R/B           
1 22830U 93061H   25148.06988988  .00000209  00000+0  92706-4 0  9998
2 22830  98.5272 216.9601 0011633  54.1494 306.0769 14.32653863653204
COSMOS 2278             
1 23087U 94023A   25148.21859437 -.00000077  00000+0 -15847-4 0  9991
2 23087  71.0538  52.3185 0006865 110.4978 249.6882 14.14292120604448
SL-16 R/B               
1 23088U 94023B   25148.39762102  .00000069  00000+0  60397-4 0  9992
2 23088  71.0003 309.9996 0003594 334.3177  25.7767 14.14968442605736
SL-16 R/B               
1 23343U 94074B   25148.38824961  .00000466  00000+0  69681-4 0  9999
2 23343  97.7401 185.2879 0008097  74.2962 296.5258 14.79024342645074
SL-16 R/B               
1 23405U 94077B   25148.49047094  .00000223  00000+0  13873-3 0  9999
2 23405  70.9828 232.4676 0004589 251.0473 109.0152 14.15515407575871
ARIANE 40+ R/B          
1 23561U 95021B   25148.43142516  .00000288  00000+0  10652-3 0  9994
2 23561  98.4839 218.1755 0005512 276.7936  93.5771 14.39520382578203
SL-16 R/B               
1 23705U 95058B   25148.48323503  .00000045  00000+0  47574-4 0  9991
2 23705  71.0229  59.0189 0013317 203.9818 156.0686 14.15450994527499
SL-16 R/B               
1 24298U 96051B   25148.47050238 -.00000173  00000+0 -67224-4 0  9992
2 24298  70.7703  58.8591 0016664 203.8534 156.1815 14.12419492481372
ORBVIEW 2 (SEASTAR)     
1 24883U 97037A   25148.51839898  .00000268  00000+0  11000-3 0  9992
2 24883  98.8238 300.8927 0002565 154.4982 205.6330 14.35241939467563
SL-16 R/B               
1 25400U 98043G   25148.29810197  .00000052  00000+0  40751-4 0  9999
2 25400  98.7872  95.3506 0010793 119.1791 241.0470 14.25968919398317
SL-16 R/B               
1 25407U 98045B   25148.49258817  .00000122  00000+0  85609-4 0  9994
2 25407  71.0125  61.3119 0005290 104.4675 255.7036 14.16141341386720
ISS (ZARYA)             
1 25544U 98067A   25148.40594140  .00013633  00000+0  24815-3 0  9995
2 25544  51.6372  45.0899 0001944 160.2922 199.8142 15.49800549512097
CZ-4B R/B               
1 25732U 99025C   25148.42044618  .00000079  00000+0  58827-4 0  9992
2 25732  98.7006 193.7978 0038271  85.2506 286.0284 14.18187653347730
OKEAN-O                 
1 25860U 99039A   25148.41780496  .00000663  00000+0  95140-4 0  9997
2 25860  97.9844 205.5346 0001555 113.8790 246.2585 14.79775757392199
SL-16 R/B               
1 25861U 99039B   25148.40544330  .00000587  00000+0  82135-4 0  9997
2 25861  98.0371 202.2263 0016323 101.6985 258.6060 14.81259260394623
DELTA 2 R/B             
1 25876U 99041E   25148.32083050  .00000701  00000+0  15163-3 0  9998
2 25876  51.7663 359.9756 0506749 226.8457 128.9050 14.10705248322731
HELIOS 1B               
1 25977U 99064A   25148.40102318  .00001208  00000+0  14340-3 0  9992
2 25977  98.1975  37.1444 0000356  68.0016 292.1236 14.86434437642864
TERRA                   
1 25994U 99068A   25148.58788571  .00000457  00000+0  10302-3 0  9994
2 25994  97.9990 207.2158 0002679  36.1699  99.3831 14.60690600353452
SL-16 R/B               
1 26070U 00006B   25148.22225098 -.00000041  00000+0  33388-5 0  9996
2 26070  71.0023 338.0486 0018675 257.4531 102.4503 14.15771680308158
TITAN 4B R/B            
1 26474U 00047B   25148.39844934  .00003735  00000+0  25176-3 0  9999
2 26474  67.9893 121.0449 0043694 354.7262   5.3419 15.07071256349892
ENVISAT                 
1 27386U 02009A   25148.40246785  .00000099  00000+0  45887-4 0  9996
2 27386  98.3329 104.5332 0001289  91.8230  75.9319 14.38915012218147
IDEFIX & ARIANE 42P R/B 
1 27422U 02021B   25148.54605894  .00000253  00000+0  11310-3 0  9991
2 27422  98.5609  86.1024 0010998 311.8413  48.1830 14.30783849203247
AQUA                    
1 27424U 02022A   25148.64511503  .00000893  00000+0  19092-3 0  9993
2 27424  98.3771 106.7517 0002124  87.9717  84.9573 14.61267326227095
CZ-4B R/B               
1 27432U 02024C   25148.36357500  .00000052  00000+0  49666-4 0  9996
2 27432  98.9243 197.4877 0051216 112.4995 258.0174 14.14482827188908
MIDORI II (ADEOS-II)    
1 27597U 02056A   25148.29768160  .00000306  00000+0  13855-3 0  9995
2 27597  98.7373 100.5787 0002147  95.9125 264.2301 14.29037495169538
H-2A R/B                
1 27601U 02056E   25148.34201034  .00000265  00000+0  10829-3 0  9991
2 27601  98.2782 115.3672 0069300 292.6809 239.7118 14.33500052173222
CZ-4B R/B               
1 28059U 03049C   25148.37334984  .00000423  00000+0  10910-3 0  9993
2 28059  98.6583 127.6891 0048990  23.8351 336.5098 14.54670005145119
CZ-2C R/B               
1 28222U 04012C   25148.53835357  .00019004  00000+0  41883-3 0  9992
2 28222  97.7665 186.6239 0021773 265.4512  94.4248 15.43726565160055
